ONEWEB-0627             
1 55168U 23004AE  24107.65601648  .00000026  00000+0  34181-4 0  9992
2 55168  87.9216 163.4012 0002767  89.3901 270.7548 13.17650388 63340
ONEWEB-0628             
1 55169U 23004AF  24107.60336213 -.00000346  00000+0 -99594-3 0  9996
2 55169  87.8965 148.2159 0002294  81.3989 278.7399 13.12442816 64205
ONEWEB-0629             
1 55170U 23004AG  24107.65127885  .00000047  00000+0  87910-4 0  9992
2 55170  87.9212 163.3951 0001941  83.4012 276.7340 13.17649081 63345
ONEWEB-0631             
1 55171U 23004AH  24107.63324930  .00000026  00000+0  33947-4 0  9999
2 55171  87.9142 132.9792 0002722  99.8719 260.2721 13.18685619 65358
ONEWEB-0709             
1 55172U 23004AJ  24107.70042723 -.00000291  00000+0 -85737-3 0  9994
2 55172  87.9023 178.5265 0002846 121.0041 239.1367 13.11418981 62134
ONEWEB-0710             
1 55173U 23004AK  24107.72087403  .00000062  00000+0  12527-3 0  9992
2 55173  87.9212 163.3926 0002307 100.5382 259.6010 13.17650577 63355
ONEWEB-0711             
1 55174U 23004AL  24107.74912849 -.00000292  00000+0 -85967-3 0  9991
2 55174  87.9018 178.4868 0002660  83.2570 276.8860 13.11413695 62108
ONEWEB-0713             
1 55175U 23004AM  24107.69068363 -.00000618  00000+0 -17809-2 0  9990
2 55175  87.9019 178.5061 0002246  90.8180 269.3205 13.11417478 62087
ONEWEB-0715             
1 55176U 23004AN  24107.68580845 -.00000552  00000+0 -15923-2 0  9996
2 55176  87.9020 178.5072 0002055  93.1657 266.9706 13.11415372 62120
ONEWEB-0716             
1 55177U 23004AP  24107.71455828 -.00000011  00000+0 -61603-4 0  9991
2 55177  87.9216 163.3841 0001837  97.0414 263.0926 13.17648251 63353
ONEWEB-0717             
1 55178U 23004AQ  24107.69714936  .00000093  00000+0  20726-3 0  9995
2 55178  87.9214 163.3528 0003028  90.4625 269.6854 13.17650824 63406
ONEWEB-0719             
1 55179U 23004AR  24107.70822926  .00000001  00000+0 -30030-4 0  9997
2 55179  87.9213 163.3372 0001920  89.9840 270.1511 13.17648603 63357
ONEWEB-0530             
1 55796U 23029A   24107.88655001 -.00000048  00000+0 -15063-3 0  9996
2 55796  87.9177  71.9259 0002413  72.7521 287.3876 13.20770550 56697
ONEWEB-0534             
1 55797U 23029B   24107.94966760  .00000010  00000+0 -64017-5 0  9994
2 55797  87.9178  71.9205 0001771  79.7999 280.3334 13.20772992 56708
ONEWEB-0556             
1 55798U 23029C   24107.88023386 -.00000008  00000+0 -51117-4 0  9990
2 55798  87.9176  71.9279 0001868  54.8339 305.2970 13.20771746 56694
ONEWEB-0562             
1 55799U 23029D   24107.94334957  .00000026  00000+0  31379-4 0  9993
2 55799  87.9177  71.9054 0002607  59.1569 300.9821 13.20774859 56709
ONEWEB-0563             
1 55800U 23029E   24107.93705172  .00000043  00000+0  74084-4 0  9995
2 55800  87.9179  71.9218 0001826  73.5079 286.6255 13.20770641 56698
ONEWEB-0564             
1 55801U 23029F   24107.93072950 -.00000097  00000+0 -27154-3 0  9993
2 55801  87.9177  71.9076 0002497  79.3864 280.7551 13.20775814 56703
ONEWEB-0638             
1 55802U 23029G   24107.92034195 -.00000161  00000+0 -46759-3 0  9996
2 55802  87.8912  87.2074 0001448  67.4593 292.6690 13.14501959 55446
ONEWEB-0639             
1 55803U 23029H   24107.50460616  .00000128  00000+0  28837-3 0  9990
2 55803  87.9100 102.5448 0001166 138.1370 221.9852 13.19725596 54487
ONEWEB-0640             
1 55804U 23029J   24107.92987053  .00000268  00000+0  68780-3 0  9992
2 55804  87.8911  87.2028 0001185  65.0581 295.0672 13.14503856 55462
ONEWEB-0641             
1 55805U 23029K   24107.49986382  .00000089  00000+0  18944-3 0  9997
2 55805  87.9098 102.5297 0001745  96.2452 263.8880 13.19724632 54492
ONEWEB-0642             
1 55806U 23029L   24107.95003111  .00000047  00000+0  83906-4 0  9994
2 55806  87.9103 102.4598 0001605 124.7413 235.3871 13.19724325 54541
ONEWEB-0643             
1 55807U 23029M   24107.89973021 -.00000353  00000+0 -98580-3 0  9999
2 55807  87.8911  87.1849 0002186 115.3070 244.8286 13.14502387 55437
ONEWEB-0644             
1 55808U 23029N   24107.49038225  .00000498  00000+0  12113-2 0  9999
2 55808  87.9104 102.5464 0001784 107.6610 252.4717 13.19730525 54485
ONEWEB-0645             
1 55809U 23029P   24107.94133377  .00000020  00000+0  17712-4 0  9997
2 55809  87.9102 102.4585 0001378  95.0876 265.0414 13.19723475 54547
ONEWEB-0646             
1 55810U 23029Q   24107.89553678 -.00000033  00000+0 -11416-3 0  9993
2 55810  87.9101 102.4680 0001917  97.7404 262.3947 13.19724814 54526
ONEWEB-0648             
1 55811U 23029R   24107.94413591 -.00000075  00000+0 -23708-3 0  9992
2 55811  87.8915  87.1464 0001105 118.1586 241.9655 13.14501980 55449
ONEWEB-0649             
1 55812U 23029S   24107.93421674  .00000047  00000+0  84459-4 0  9991
2 55812  87.9100 102.4573 0001567 101.3935 258.7373 13.19722491 54565
ONEWEB-0650             
1 55813U 23029T   24107.92947757  .00000053  00000+0  10021-3 0  9996
2 55813  87.9102 102.4586 0001840  99.8131 260.3210 13.19727839 54532
ONEWEB-0652             
1 55814U 23029U   24107.92509896 -.00000162  00000+0 -47152-3 0  9993
2 55814  87.8913  87.1624 0002017  81.9258 278.2100 13.14501739 55411
ONEWEB-0653             
1 55815U 23029V   24107.90925048 -.00000242  00000+0 -68672-3 0  9992
2 55815  87.8914  87.1440 0001843  75.2784 284.8550 13.14502313 55449
ONEWEB-0654             
1 55816U 23029W   24107.90450799 -.00000045  00000+0 -15467-3 0  9994
2 55816  87.8914  87.1568 0002244  74.2060 285.9317 13.14502187 55467
ONEWEB-0656             
1 55817U 23029X   24107.92441214  .00000132  00000+0  29335-3 0  9993
2 55817  87.9177  71.8511 0002684  81.1945 278.9492 13.20774362 56702
ONEWEB-0657             
1 55818U 23029Y   24107.92475880  .00000015  00000+0  49088-5 0  9999
2 55818  87.9100 102.4648 0002899  94.1281 266.0183 13.19726594 54543
ONEWEB-0658             
1 55819U 23029Z   24107.69256571  .00000170  00000+0  39158-3 0  9995
2 55819  87.9100 102.4469 0001675 109.5530 250.5784 13.19727568 54529
ONEWEB-0660             
1 55820U 23029AA  24107.88229084 -.00000340  00000+0 -95111-3 0  9999
2 55820  87.8914  87.1362 0001378  82.4551 277.6735 13.14502433 55441
ONEWEB-0661             
1 55821U 23029AB  24107.91717947  .00000095  00000+0  22176-3 0  9990
2 55821  87.8913  87.1955 0001488  77.0667 283.0629 13.14500734 55433
ONEWEB-0662             
1 55822U 23029AC  24107.95205830 -.00000030  00000+0 -11620-3 0  9991
2 55822  87.8915  87.1962 0001503  89.4937 270.6365 13.14499539 55483
ONEWEB-0663             
1 55823U 23029AD  24107.91796516  .00000055  00000+0  10290-3 0  9991
2 55823  87.9178  71.9133 0001509  85.2168 274.9137 13.20777572 56694
ONEWEB-0664             
1 55824U 23029AE  24107.91180415  .00000011  00000+0 -36560-5 0  9990
2 55824  87.9178  71.9271 0001834  67.4561 292.6766 13.20770812 56693
ONEWEB-0665             
1 55825U 23029AF  24107.68565207 -.00000162  00000+0 -47146-3 0  9999
2 55825  87.8911  87.2170 0001534  84.6208 275.5097 13.14502553 55427
ONEWEB-0666             
1 55826U 23029AG  24107.90549250  .00000028  00000+0  37641-4 0  9994
2 55826  87.9178  71.9194 0002395  81.2003 278.9402 13.20770421 56709
ONEWEB-0667             
1 55827U 23029AH  24107.89917957  .00000035  00000+0  54689-4 0  9995
2 55827  87.9177  71.8545 0001643  77.3193 282.8124 13.20771651 56698
ONEWEB-0669             
1 55828U 23029AJ  24107.89441750 -.00000010  00000+0 -56736-4 0  9999
2 55828  87.9177  71.8934 0002497  67.3697 292.7700 13.20775229 56692
ONEWEB-0670             
1 55829U 23029AK  24107.89180899 -.00000190  00000+0 -54597-3 0  9995
2 55829  87.8916  87.1793 0001505  72.3662 287.7632 13.14500756 55470
ONEWEB-0671             
1 55830U 23029AL  24107.68783412  .00000076  00000+0  15858-3 0  9992
2 55830  87.9101 102.5113 0001659  83.9583 276.1739 13.19726153 54506
ONEWEB-0672             
1 55831U 23029AM  24107.88970668  .00000019  00000+0  14168-4 0  9997
2 55831  87.9178  71.8778 0002336  83.5658 276.5741 13.20770153 56698
ONEWEB-0673             
1 55832U 23029AN  24107.51250763  .00000111  00000+0  24471-3 0  9995
2 55832  87.9099 102.5143 0001633  86.9343 273.1977 13.19726304 54482
ONEWEB-0674             
1 55833U 23029AP  24107.93620491  .00000208  00000+0  52535-3 0  9990
2 55833  87.8913  87.1790 0001630  67.3036 292.8265 13.14500091 55467
ONEWEB-0675             
1 55834U 23029AQ  24107.90738608 -.00000049  00000+0 -15365-3 0  9993
2 55834  87.9103 102.4656 0002269  97.1094 263.0297 13.19723708 54557
ONEWEB-0720             
1 55835U 23029AR  24107.44458532  .00000112  00000+0  24822-3 0  9995
2 55835  87.9102 102.5594 0001478 100.7276 259.4023 13.19724403 54417
ONEWEB-0537             
1 56046U 23043A   24107.76224890 -.00000232  00000+0 -64072-3 0  9995
2 56046  87.9150  26.2884 0002158  83.3810 276.7567 13.16594254 54821
ONEWEB-0538             
1 56047U 23043B   24107.83192001  .00000073  00000+0  15835-3 0  9996
2 56047  87.9149  26.2938 0001811  87.8578 272.2760 13.16592935 54847
ONEWEB-0546             
1 56048U 23043C   24107.81925603  .00000043  00000+0  78353-4 0  9999
2 56048  87.9149  26.2591 0002779  79.2820 280.8624 13.16593306 54838
ONEWEB-0547             
1 56049U 23043D   24107.84270366  .00000109  00000+0  23193-3 0  9996
2 56049  87.9308  41.4847 0002055  94.3970 265.7399 13.21825928 53687
ONEWEB-0548             
1 56050U 23043E   24107.84458249  .00000090  00000+0  20171-3 0  9998
2 56050  87.9150  26.2980 0001749  58.7358 301.3944 13.16593032 54839
ONEWEB-0549             
1 56051U 23043F   24107.83480798  .00000075  00000+0  15033-3 0  9996
2 56051  87.9308  41.4862 0001814  81.4069 278.7271 13.21826282 53682
ONEWEB-0550             
1 56052U 23043G   24107.82219904  .00000004  00000+0 -22669-4 0  9992
2 56052  87.9305  41.4987 0001776  74.4747 285.6583 13.21825743 53684
